OBJECT C                
1 57582U 23117C   24303.15880814  .00021940  00000+0  10269-2 0  9993
2 57582  97.4738  13.6049 0010086 180.6301 179.4922 15.19709172 67508
